NORAD_CAT_ID,OBJECT_NAME,OBJECT_TYPE,EPOCH,MEAN_MOTION,ECCENTRICITY,INCLINATION,RA_OF_ASC_NODE,ARG_OF_PERICENTER,MEAN_ANOMALY,BSTAR,MEAN_MOTION_DOT,MEAN_MOTION_DDOT,TLE_LINE0,TLE_LINE1,TLE_LINE2,SEMIMAJOR_AXIS,PERIOD,APOGEE,PERIGEE,DECAYED
52877.0,STARLINK-4214,PAYLOAD,2023-02-28 15:26:01,15.0882216,8.12e-05,53.2169,294.8659,119.7874,240.3199,0.00071459,0.00011098,0.0,0 STARLINK-4214,1 52877U 22062AZ  23059.64306759  .00011098  00000-0  71459-3 0  9998,2 52877  53.2169 294.8659 0000812 119.7874 240.3199 15.08822160 39731,6917.935,95.439,540.362,539.238,0.0
52877.0,STARLINK-4214,PAYLOAD,2023-02-28 21:47:34,15.08794666,0.0001112,53.2167,293.6772,99.8741,260.2376,0.00043763,6.675e-05,0.0,0 STARLINK-4214,1 52877U 22062AZ  23059.90803625  .00006675  00000-0  43763-3 0  9993,2 52877  53.2167 293.6772 0001112  99.8741 260.2376 15.08794666 39284,6918.019,95.44,540.653,539.115,0.0
52877.0,STARLINK-4214,PAYLOAD,2023-03-01 00:58:21,15.08796449,0.0001182,53.2168,293.0825,97.6319,262.4807,0.0011889,0.00018661,0.0,0 STARLINK-4214,1 52877U 22062AZ  23060.04052166  .00018661  00000-0  11889-2 0  9997,2 52877  53.2168 293.0825 0001182  97.6319 262.4807 15.08796449 39792,6918.014,95.44,540.696,539.061,0.0
52877.0,STARLINK-4214,PAYLOAD,2023-03-01 21:38:22,15.08833938,9.94e-05,53.2168,289.217,89.9231,270.1875,0.00096896,0.00015164,0.0,0 STARLINK-4214,1 52877U 22062AZ  23060.90165130  .00015164  00000-0  96896-3 0  9995,2 52877  53.2168 289.2170 0000994  89.9231 270.1875 15.08833938 39436,6917.899,95.438,540.452,539.076,0.0
52877.0,STARLINK-4214,PAYLOAD,2023-03-02 00:49:08,15.08841606,9.96e-05,53.2166,288.6212,92.1059,268.0047,0.0011411,0.0001792,0.0,0 STARLINK-4214,1 52877U 22062AZ  23061.03413067  .00017920  00000-0  11411-2 0  9996,2 52877  53.2166 288.6212 0000996  92.1059 268.0047 15.08841606 39944,6917.875,95.437,540.43,539.051,0.0
52877.0,STARLINK-4214,PAYLOAD,2023-03-02 19:53:45,15.08870218,0.0001103,53.2166,285.0535,93.4858,266.626,0.0011311,0.00017774,0.0,0 STARLINK-4214,1 52877U 22062AZ  23061.82900225  .00017774  00000-0  11311-2 0  9996,2 52877  53.2166 285.0535 0001103  93.4858 266.6260 15.08870218 39576,6917.788,95.436,540.416,538.89,0.0
52877.0,STARLINK-4214,PAYLOAD,2023-03-02 23:04:31,15.08877616,0.0001107,53.2169,284.4591,92.8452,267.2667,0.0012599,0.00019841,0.0,0 STARLINK-4214,1 52877U 22062AZ  23061.96147893  .00019841  00000-0  12599-2 0  9991,2 52877  53.2169 284.4591 0001107  92.8452 267.2667 15.08877616 39590,6917.765,95.435,540.396,538.865,0.0
52877.0,STARLINK-4214,PAYLOAD,2023-03-03 14:58:22,15.08872892,0.0001223,53.2174,281.4847,86.4508,273.6624,0.00089221,0.00013953,0.0,0 STARLINK-4214,1 52877U 22062AZ  23062.62387376  .00013953  00000-0  89221-3 0  9992,2 52877  53.2174 281.4847 0001223  86.4508 273.6624 15.08872892 40189,6917.78,95.435,540.491,538.799,0.0
52877.0,STARLINK-4214,PAYLOAD,2023-03-03 21:19:55,15.08863944,0.0001109,53.217,280.2963,82.1612,277.9506,0.00052601,8.099e-05,0.0,0 STARLINK-4214,1 52877U 22062AZ  23062.88883165  .00008099  00000-0  52601-3 0  9994,2 52877  53.2170 280.2963 0001109  82.1612 277.9506 15.08863944 40222,6917.807,95.436,540.439,538.905,0.0
52877.0,STARLINK-4214,PAYLOAD,2023-03-04 22:46:05,15.08842556,0.000117,53.2169,275.5378,96.2346,263.878,0.00073314,0.000114,0.0,0 STARLINK-4214,1 52877U 22062AZ  23063.94867789  .00011400  00000-0  73314-3 0  9990,2 52877  53.2169 275.5378 0001170  96.2346 263.8780 15.08842556 40386,6917.873,95.437,540.547,538.928,0.0
52877.0,STARLINK-4214,PAYLOAD,2023-03-05 13:04:34,15.08834631,0.0001359,53.2152,272.8621,97.9761,262.1386,0.00067799,0.00010517,0.0,0 STARLINK-4214,1 52877U 22062AZ  23064.54483985  .00010517  00000-0  67799-3 0  9997,2 52877  53.2152 272.8621 0001359  97.9761 262.1386 15.08834631 40476,6917.897,95.438,540.702,538.822,0.0
52877.0,STARLINK-4214,PAYLOAD,2023-03-05 21:01:29,15.08840356,0.000103,53.2158,271.3764,95.2633,264.8477,0.00052075,8.01e-05,0.0,0 STARLINK-4214,1 52877U 22062AZ  23064.87603972  .00008010  00000-0  52075-3 0  9999,2 52877  53.2158 271.3764 0001030  95.2633 264.8477 15.08840356 40032,6917.879,95.438,540.457,539.032,0.0
52877.0,STARLINK-4214,PAYLOAD,2023-03-07 01:38:26,15.08860424,0.0001063,53.2151,266.0205,78.6711,281.4401,0.00069757,0.00010838,0.0,0 STARLINK-4214,1 52877U 22062AZ  23066.06835792  .00010838  00000-0  69757-3 0  9995,2 52877  53.2151 266.0205 0001063  78.6711 281.4401 15.08860424 40708,6917.818,95.436,540.418,538.948,0.0
52877.0,STARLINK-4214,PAYLOAD,2023-03-07 07:59:58,15.08834976,0.0001054,53.2152,264.8325,82.2144,277.8968,-7.927e-05,-1.549e-05,0.0,0 STARLINK-4214,1 52877U 22062AZ  23066.33332129 -.00001549  00000-0 -79270-4 0  9994,2 52877  53.2152 264.8325 0001054  82.2144 277.8968 15.08834976 40743,6917.896,95.438,540.49,539.032,0.0
52877.0,STARLINK-4214,PAYLOAD,2023-03-07 20:43:03,15.08856365,0.0001362,53.215,262.454,78.3734,281.7411,0.00045001,6.884e-05,0.0,0 STARLINK-4214,1 52877U 22062AZ  23066.86323769  .00006884  00000-0  45001-3 0  9991,2 52877  53.2150 262.4540 0001362  78.3734 281.7411 15.08856365 40829,6917.83,95.437,540.638,538.753,0.0
52877.0,STARLINK-4214,PAYLOAD,2023-03-07 22:18:26,15.08856046,0.0001385,53.2148,262.1565,80.0736,280.0412,0.00067703,0.00010508,0.0,0 STARLINK-4214,1 52877U 22062AZ  23066.92947736  .00010508  00000-0  67703-3 0  9995,2 52877  53.2148 262.1565 0001385  80.0736 280.0412 15.08856046 40343,6917.831,95.437,540.654,538.738,0.0
52877.0,STARLINK-4214,PAYLOAD,2023-03-08 03:04:36,15.08819221,0.0001507,53.2148,261.2649,69.5352,290.5802,-0.00072079,-0.00011734,0.0,0 STARLINK-4214,1 52877U 22062AZ  23067.12820418 -.00011734  00000-0 -72079-3 0  9991,2 52877  53.2148 261.2649 0001507  69.5352 290.5802 15.08819221 40868,6917.944,95.439,540.851,538.766,0.0
52877.0,STARLINK-4214,PAYLOAD,2023-03-08 14:12:19,15.08829884,0.0001258,53.2149,259.1825,80.9903,279.1231,-5.4813e-05,-1.16e-05,0.0,0 STARLINK-4214,1 52877U 22062AZ  23067.59188669 -.00001160  00000-0 -54813-4 0  9996,2 52877  53.2149 259.1825 0001258  80.9903 279.1231 15.08829884 40936,6917.911,95.438,540.647,538.906,0.0
52877.0,STARLINK-4214,PAYLOAD,2023-03-08 22:09:15,15.08840852,0.0001141,53.215,257.6962,80.1802,279.9319,0.0024183,0.0003841,0.0,0 STARLINK-4214,1 52877U 22062AZ  23067.92309116  .00038410  00000-0  24183-2 0  9996,2 52877  53.2150 257.6962 0001141  80.1802 279.9319 15.08840852 40498,6917.878,95.438,540.532,538.953,0.0
52877.0,STARLINK-4214,PAYLOAD,2023-03-09 18:49:15,15.08873173,0.0001187,53.2156,253.8298,81.7901,278.3226,0.001919,0.00030413,0.0,0 STARLINK-4214,1 52877U 22062AZ  23068.78420399  .00030413  00000-0  19190-2 0  9995,2 52877  53.2156 253.8298 0001187  81.7901 278.3226 15.08873173 41113,6917.779,95.435,540.465,538.823,0.0
52877.0,STARLINK-4214,PAYLOAD,2023-03-09 22:00:01,15.08881457,0.0001191,53.2157,253.2353,79.0857,281.0269,0.0019957,0.00031653,0.0,0 STARLINK-4214,1 52877U 22062AZ  23068.91668065  .00031653  00000-0  19957-2 0  9992,2 52877  53.2157 253.2353 0001191  79.0857 281.0269 15.08881457 40644,6917.754,95.435,540.443,538.795,0.0
52877.0,STARLINK-4214,PAYLOAD,2023-03-10 02:46:11,15.08837956,0.0001845,53.2157,252.3428,65.6728,294.4457,-0.00044133,-7.305e-05,0.0,0 STARLINK-4214,1 52877U 22062AZ  23069.11540607 -.00007305  00000-0 -44133-3 0  9990,2 52877  53.2157 252.3428 0001845  65.6728 294.4457 15.08837956 41161,6917.887,95.438,541.028,538.475,0.0
52877.0,STARLINK-4214,PAYLOAD,2023-03-10 18:40:02,15.08844415,0.0001458,53.2157,249.3686,98.4815,261.6342,0.0012431,0.00019554,0.0,0 STARLINK-4214,1 52877U 22062AZ  23069.77780393  .00019554  00000-0  12431-2 0  9992,2 52877  53.2157 249.3686 0001458  98.4815 261.6342 15.08844415 41262,6917.867,95.437,540.741,538.723,0.0
52877.0,STARLINK-4214,PAYLOAD,2023-03-11 10:33:53,15.08851108,0.0001131,53.2162,246.396,290.9254,69.1617,0.0011666,0.00018333,0.0,0 STARLINK-4214,1 52877U 22062AZ  23070.44020566  .00018333  00000-0  11666-2 0  9990,2 52877  53.2162 246.3960 0001131 290.9254  69.1617 15.08851108 41368,6917.846,95.437,540.494,538.929,0.0
52877.0,STARLINK-4214,PAYLOAD,2023-03-11 12:09:17,15.08845637,0.0001478,53.2155,246.0971,99.0634,261.0526,0.00083065,0.00012959,0.0,0 STARLINK-4214,1 52877U 22062AZ  23070.50644700  .00012959  00000-0  83065-3 0  9990,2 52877  53.2155 246.0971 0001478  99.0634 261.0526 15.08845637 40881,6917.863,95.437,540.751,538.706,0.0
52877.0,STARLINK-4214,PAYLOAD,2023-03-11 21:41:35,15.08856412,0.0001404,53.2159,244.3128,98.7799,261.3352,0.00085798,0.00013399,0.0,0 STARLINK-4214,1 52877U 22062AZ  23070.90388366  .00013399  00000-0  85798-3 0  9991,2 52877  53.2159 244.3128 0001404  98.7799 261.3352 15.08856412 40947,6917.83,95.437,540.666,538.724,0.0
52877.0,STARLINK-4214,PAYLOAD,2023-03-12 12:00:03,15.08852276,0.0001415,53.2148,241.6352,108.683,251.4316,0.00096279,0.00015073,0.0,0 STARLINK-4214,1 52877U 22062AZ  23071.50004526  .00015073  00000-0  96279-3 0  9998,2 52877  53.2148 241.6352 0001415 108.6830 251.4316 15.08852276 41522,6917.843,95.437,540.687,538.729,0.0
52877.0,STARLINK-4214,PAYLOAD,2023-03-12 19:56:59,15.08850434,0.0001176,53.2168,240.1513,99.3769,260.7356,0.0009796,0.00015341,0.0,0 STARLINK-4214,1 52877U 22062AZ  23071.83124446  .00015341  00000-0  97960-3 0  9994,2 52877  53.2168 240.1513 0001176  99.3769 260.7356 15.08850434 41080,6917.848,95.437,540.527,538.9,0.0
52877.0,STARLINK-4214,PAYLOAD,2023-03-13 11:50:51,15.08837389,0.000108,53.2171,237.1768,111.0225,249.0883,0.00044326,6.773e-05,0.0,0 STARLINK-4214,1 52877U 22062AZ  23072.49364759  .00006773  00000-0  44326-3 0  9997,2 52877  53.2171 237.1768 0001080 111.0225 249.0883 15.08837389 41679,6917.888,95.438,540.501,539.006,0.0
52877.0,STARLINK-4214,PAYLOAD,2023-03-13 21:23:09,15.08851306,0.0001112,53.2168,235.3926,115.3119,244.7989,0.00076711,0.00011945,0.0,0 STARLINK-4214,1 52877U 22062AZ  23072.89108559  .00011945  00000-0  76711-3 0  9995,2 52877  53.2168 235.3926 0001112 115.3119 244.7989 15.08851306 41243,6917.846,95.437,540.48,538.942,0.0
